[{"OBJECT_NAME":"STARLINK-1524","OBJECT_ID":"2020-055W","EPOCH":"2026-03-09T09:25:18.503328","MEAN_MOTION":15.29379865,"ECCENTRICITY":0.00014693,"INCLINATION":53.1566,"RA_OF_ASC_NODE":115.2043,"ARG_OF_PERICENTER":112.6811,"MEAN_ANOMALY":247.4344,"EPHEMERIS_TYPE":0,"CLASSIFICATION_TYPE":"U","NORAD_CAT_ID":46047,"ELEMENT_SET_NO":999,"REV_AT_EPOCH":30902,"BSTAR":0.00029457817,"MEAN_MOTION_DOT":8.16e-5,"MEAN_MOTION_DDOT":0},{"OBJECT_NAME":"TEVEL2-5","OBJECT_ID":"2025-052E","EPOCH":"2026-03-09T23:11:54.246048","MEAN_MOTION":15.30817434,"ECCENTRICITY":0.00047002,"INCLINATION":97.4013,"RA_OF_ASC_NODE":325.3677,"ARG_OF_PERICENTER":95.3936,"MEAN_ANOMALY":264.7842,"EPHEMERIS_TYPE":0,"CLASSIFICATION_TYPE":"U","NORAD_CAT_ID":63214,"ELEMENT_SET_NO":999,"REV_AT_EPOCH":5491,"BSTAR":0.00071764727,"MEAN_MOTION_DOT":0.00021339,"MEAN_MOTION_DDOT":0}]
